CTC2_L_00408016-03
1 33220U 26382SY  26070.40847222  .00000000  00000+0  00000-0 0  9994
2 33220  45.0000 180.0000 0000000   0.0000   0.0000 12.65579349    12
CTC2_L_00408016-04
1 33221U 24076RK  26070.40847222  .00000000  00000+0  00000-0 0  9993
2 33221  45.0000 180.0000 0000000   0.0000  90.0000 12.65579349    12
CTC2_L_00408017-01
1 33222U 25327OV  26070.40847222  .00000000  00000+0  00000-0 0  9994
2 33222  45.0000 192.0000 0000000   0.0000 192.0000 12.65579349    19
CTC2_L_00408017-02
1 33223U 24298AW  26070.40847222  .00000000  00000+0  00000-0 0  9991
2 33223  45.0000 192.0000 0000000   0.0000 282.0000 12.65579349    10
CTC2_L_00408017-03
1 33224U 25676ER  26070.40847222  .00000000  00000+0  00000-0 0  9993
2 33224  45.0000 192.0000 0000000   0.0000  12.0000 12.65579349    12
CTC2_L_00408017-04
1 33225U 26944YO  26070.40847222  .00000000  00000+0  00000-0 0  9993
2 33225  45.0000 192.0000 0000000   0.0000 102.0000 12.65579349    13
CTC2_L_00408018-01
1 33226U 22088DD  26070.40847222  .00000000  00000+0  00000-0 0  9999
2 33226  45.0000 204.0000 0000000   0.0000 204.0000 12.65579349    11
CTC2_L_00408018-02
1 33227U 23523HF  26070.40847222  .00000000  00000+0  00000-0 0  9995
2 33227  45.0000 204.0000 0000000   0.0000 294.0000 12.65579349    11
CTC2_L_00408018-03
1 33228U 23765IB  26070.40847222  .00000000  00000+0  00000-0 0  9994
2 33228  45.0000 204.0000 0000000   0.0000  24.0000 12.65579349    13
CTC2_L_00408018-04
1 33229U 25234EI  26070.40847222  .00000000  00000+0  00000-0 0  9998
2 33229  45.0000 204.0000 0000000   0.0000 114.0000 12.65579349    14
CTC2_L_00408019-01
1 33230U 23599PD  26070.40847222  .00000000  00000+0  00000-0 0  9992
2 33230  45.0000 216.0000 0000000   0.0000 216.0000 12.65579349    12
CTC2_L_00408019-02
1 33231U 23156XT  26070.40847222  .00000000  00000+0  00000-0 0  9992
2 33231  45.0000 216.0000 0000000   0.0000 306.0000 12.65579349    13
CTC2_L_00408019-03
1 33232U 25872FX  26070.40847222  .00000000  00000+0  00000-0 0  9990
2 33232  45.0000 216.0000 0000000   0.0000  36.0000 12.65579349    14
CTC2_L_00408019-04
1 33233U 22885BV  26070.40847222  .00000000  00000+0  00000-0 0  9992
2 33233  45.0000 216.0000 0000000   0.0000 126.0000 12.65579349    15
CTC2_L_00408020-01
1 33234U 22357RZ  26070.40847222  .00000000  00000+0  00000-0 0  9997
2 33234  45.0000 228.0000 0000000   0.0000 228.0000 12.65579349    12
CTC2_L_00408020-02
1 33235U 24941KE  26070.40847222  .00000000  00000+0  00000-0 0  9999
2 33235  45.0000 228.0000 0000000   0.0000 318.0000 12.65579349    13
CTC2_L_00408020-03
1 33236U 26664SY  26070.40847222  .00000000  00000+0  00000-0 0  9994
2 33236  45.0000 228.0000 0000000   0.0000  48.0000 12.65579349    14
CTC2_L_00408020-04
1 33237U 23042VG  26070.40847222  .00000000  00000+0  00000-0 0  9992
2 33237  45.0000 228.0000 0000000   0.0000 138.0000 12.65579349    15
CTC2_L_00408021-01
1 33238U 25258NU  26070.40847222  .00000000  00000+0  00000-0 0  9994
2 33238  45.0000 240.0000 0000000   0.0000 240.0000 12.65579349    14
CTC2_L_00408021-02
1 33239U 23233KU  26070.40847222  .00000000  00000+0  00000-0 0  9996
2 33239  45.0000 240.0000 0000000   0.0000 330.0000 12.65579349    15
CTC2_L_00408021-03
1 33240U 22693XY  26070.40847222  .00000000  00000+0  00000-0 0  9997
2 33240  45.0000 240.0000 0000000   0.0000  60.0000 12.65579349    17
CTC2_L_00408021-04
1 33241U 24593KX  26070.40847222  .00000000  00000+0  00000-0 0  9999
2 33241  45.0000 240.0000 0000000   0.0000 150.0000 12.65579349    18
CTC2_L_00408022-01
1 33242U 22346WZ  26070.40847222  .00000000  00000+0  00000-0 0  9994
2 33242  45.0000 252.0000 0000000   0.0000 252.0000 12.65579349    15
CTC2_L_00408022-02
1 33243U 26995ZP  26070.40847222  .00000000  00000+0  00000-0 0  9999
2 33243  45.0000 252.0000 0000000   0.0000 342.0000 12.65579349    16
CTC2_L_00408022-03
1 33244U 23585SH  26070.40847222  .00000000  00000+0  00000-0 0  9992
2 33244  45.0000 252.0000 0000000   0.0000  72.0000 12.65579349    17
CTC2_L_00408022-04
1 33245U 24681TY  26070.40847222  .00000000  00000+0  00000-0 0  9991
2 33245  45.0000 252.0000 0000000   0.0000 162.0000 12.65579349    18
CTC2_L_00408023-01
1 33246U 26517UR  26070.40847222  .00000000  00000+0  00000-0 0  9992
2 33246  45.0000 264.0000 0000000   0.0000 264.0000 12.65579349    15
CTC2_L_00408023-02
1 33247U 22609NQ  26070.40847222  .00000000  00000+0  00000-0 0  9991
2 33247  45.0000 264.0000 0000000   0.0000 354.0000 12.65579349    16
CTC2_L_00408023-03
1 33248U 25201GF  26070.40847222  .00000000  00000+0  00000-0 0  9993
2 33248  45.0000 264.0000 0000000   0.0000  84.0000 12.65579349    17
CTC2_L_00408023-04
1 33249U 25372OH  26070.40847222  .00000000  00000+0  00000-0 0  9993
2 33249  45.0000 264.0000 0000000   0.0000 174.0000 12.65579349    18
CTC2_L_00408024-01
1 33250U 24359KM  26070.40847222  .00000000  00000+0  00000-0 0  9999
2 33250  45.0000 276.0000 0000000   0.0000 276.0000 12.65579349    16
CTC2_L_00408024-02
1 33251U 22519XL  26070.40847222  .00000000  00000+0  00000-0 0  9996
2 33251  45.0000 276.0000 0000000   0.0000   6.0000 12.65579349    18
CTC2_L_00408024-03
1 33252U 23801VB  26070.40847222  .00000000  00000+0  00000-0 0  9992
2 33252  45.0000 276.0000 0000000   0.0000  96.0000 12.65579349    18
CTC2_L_00408024-04
1 33253U 23752U   26070.40847222  .00000000  00000+0  00000-0 0  9998
2 33253  45.0000 276.0000 0000000   0.0000 186.0000 12.65579349    19
CTC2_L_00408025-01
1 33254U 22359XZ  26070.40847222  .00000000  00000+0  00000-0 0  9991
2 33254  45.0000 288.0000 0000000   0.0000 288.0000 12.65579349    16
CTC2_L_00408025-02
1 33255U 26237BH  26070.40847222  .00000000  00000+0  00000-0 0  9991
2 33255  45.0000 288.0000 0000000   0.0000  18.0000 12.65579349    18
CTC2_L_00408025-03
1 33256U 25580CY  26070.40847222  .00000000  00000+0  00000-0 0  9992
2 33256  45.0000 288.0000 0000000   0.0000 108.0000 12.65579349    19
CTC2_L_00408025-04
1 33257U 22908MX  26070.40847222  .00000000  00000+0  00000-0 0  9994
2 33257  45.0000 288.0000 0000000   0.0000 198.0000 12.65579349    19
CTC2_L_00408026-01
1 33258U 24081PM  26070.40847222  .00000000  00000+0  00000-0 0  9999
2 33258  45.0000 300.0000 0000000   0.0000 300.0000 12.65579349    10
CTC2_L_00408026-02
1 33259U 23259FJ  26070.40847222  .00000000  00000+0  00000-0 0  9996
2 33259  45.0000 300.0000 0000000   0.0000  30.0000 12.65579349    11
CTC2_L_00408026-03
1 33260U 26022BP  26070.40847222  .00000000  00000+0  00000-0 0  9999
2 33260  45.0000 300.0000 0000000   0.0000 120.0000 12.65579349    13
CTC2_L_00408026-04
1 33261U 22266YJ  26070.40847222  .00000000  00000+0  00000-0 0  9996
2 33261  45.0000 300.0000 0000000   0.0000 210.0000 12.65579349    14
CTC2_L_00408027-01
1 33262U 22203OT  26070.40847222  .00000000  00000+0  00000-0 0  9998
2 33262  45.0000 312.0000 0000000   0.0000 312.0000 12.65579349    11
CTC2_L_00408027-02
1 33263U 23421XF  26070.40847222  .00000000  00000+0  00000-0 0  9992
2 33263  45.0000 312.0000 0000000   0.0000  42.0000 12.65579349    12
CTC2_L_00408027-03
1 33264U 25140TT  26070.40847222  .00000000  00000+0  00000-0 0  9993
2 33264  45.0000 312.0000 0000000   0.0000 132.0000 12.65579349    13
CTC2_L_00408027-04
1 33265U 23545RW  26070.40847222  .00000000  00000+0  00000-0 0  9991
2 33265  45.0000 312.0000 0000000   0.0000 222.0000 12.65579349    14
CTC2_L_00408028-01
1 33266U 25466CS  26070.40847222  .00000000  00000+0  00000-0 0  9996
2 33266  45.0000 324.0000 0000000   0.0000 324.0000 12.65579349    11
CTC2_L_00408028-02
1 33267U 24957OL  26070.40847222  .00000000  00000+0  00000-0 0  9991
2 33267  45.0000 324.0000 0000000   0.0000  54.0000 12.65579349    12
CTC2_L_00408028-03
1 33268U 22730TW  26070.40847222  .00000000  00000+0  00000-0 0  9999
2 33268  45.0000 324.0000 0000000   0.0000 144.0000 12.65579349    13
CTC2_L_00408028-04
1 33269U 26648AL  26070.40847222  .00000000  00000+0  00000-0 0  9992
2 33269  45.0000 324.0000 0000000   0.0000 234.0000 12.65579349    14
CTC2_L_00408029-01
1 33270U 25322EL  26070.40847222  .00000000  00000+0  00000-0 0  9992
2 33270  45.0000 336.0000 0000000   0.0000 336.0000 12.65579349    12
CTC2_L_00408029-02
1 33271U 25020NL  26070.40847222  .00000000  00000+0  00000-0 0  9998
2 33271  45.0000 336.0000 0000000   0.0000  66.0000 12.65579349    13
CTC2_L_00408029-03
1 33272U 26816EO  26070.40847222  .00000000  00000+0  00000-0 0  9993
2 33272  45.0000 336.0000 0000000   0.0000 156.0000 12.65579349    14
CTC2_L_00408029-04
1 33273U 24904NJ  26070.40847222  .00000000  00000+0  00000-0 0  9990
2 33273  45.0000 336.0000 0000000   0.0000 246.0000 12.65579349    15
CTC2_L_00408030-01
1 33274U 24984ZF  26070.40847222  .00000000  00000+0  00000-0 0  9999
2 33274  45.0000 348.0000 0000000   0.0000 348.0000 12.65579349    12
CTC2_L_00408030-02
1 33275U 25494VS  26070.40847222  .00000000  00000+0  00000-0 0  9997
2 33275  45.0000 348.0000 0000000   0.0000  78.0000 12.65579349    13
CTC2_L_00408030-03
1 33276U 26790XX  26070.40847222  .00000000  00000+0  00000-0 0  9998
2 33276  45.0000 348.0000 0000000   0.0000 168.0000 12.65579349    14
CTC2_L_00408030-04
1 33277U 23879SR  26070.40847222  .00000000  00000+0  00000-0 0  9994
2 33277  45.0000 348.0000 0000000   0.0000 258.0000 12.65579349    15
